{
    "links": {
        "self": "http://www.neowsapp.com/rest/v1/neo/3672564?api_key=iIulBulltgU6a56xZRHN4H3l9WmuAYTsLGpBGhQ2"
    },
    "id": "3672564",
    "neo_reference_id": "3672564",
    "name": "(2014 KD45)",
    "designation": "2014 KD45",
    "nasa_jpl_url": "http://ssd.jpl.nasa.gov/sbdb.cgi?sstr=3672564",
    "absolute_magnitude_h": 27.8,
    "estimated_diameter": {
        "kilometers": {
            "estimated_diameter_min": 0.0073207399,
            "estimated_diameter_max": 0.016369672
        },
        "meters": {
            "estimated_diameter_min": 7.3207398935,
            "estimated_diameter_max": 16.3696720474
        },
        "miles": {
            "estimated_diameter_min": 0.0045488955,
            "estimated_diameter_max": 0.0101716395
        },
        "feet": {
            "estimated_diameter_min": 24.0181762721,
            "estimated_diameter_max": 53.70627484
        }
    },
    "is_potentially_hazardous_asteroid": false,
    "close_approach_data": [
        {
            "close_approach_date": "1977-05-20",
            "close_approach_date_full": "1977-May-20 07:35",
            "epoch_date_close_approach": 232961700000,
            "relative_velocity": {
                "kilometers_per_second": "1.1557147409",
                "kilometers_per_hour": "4160.5730672888",
                "miles_per_hour": "2585.2183039495"
            },
            "miss_distance": {
                "astronomical": "0.0378987429",
                "lunar": "14.7426109881",
                "kilometers": "5669571.213517623",
                "miles": "3522908.1926562774"
            },
            "orbiting_body": "Earth"
        },
        {
            "close_approach_date": "1993-05-25",
            "close_approach_date_full": "1993-May-25 07:44",
            "epoch_date_close_approach": 738315840000,
            "relative_velocity": {
                "kilometers_per_second": "2.5779286774",
                "kilometers_per_hour": "9280.5432387814",
                "miles_per_hour": "5766.5686585639"
            },
            "miss_distance": {
                "astronomical": "0.0885541261",
                "lunar": "34.4475550529",
                "kilometers": "13247508.644271407",
                "miles": "8231620.1662511366"
            },
            "orbiting_body": "Earth"
        },
        {
            "close_approach_date": "2009-06-17",
            "close_approach_date_full": "2009-Jun-17 02:36",
            "epoch_date_close_approach": 1245206160000,
            "relative_velocity": {
                "kilometers_per_second": "11.7273959026",
                "kilometers_per_hour": "42218.6252494784",
                "miles_per_hour": "26233.0118945995"
            },
            "miss_distance": {
                "astronomical": "0.3948733244",
                "lunar": "153.6057231916",
                "kilometers": "59072208.250059028",
                "miles": "36705768.1375014664"
            },
            "orbiting_body": "Earth"
        },
        {
            "close_approach_date": "2014-05-24",
            "close_approach_date_full": "2014-May-24 01:52",
            "epoch_date_close_approach": 1400896320000,
            "relative_velocity": {
                "kilometers_per_second": "1.142251531",
                "kilometers_per_hour": "4112.1055115262",
                "miles_per_hour": "2555.102449648"
            },
            "miss_distance": {
                "astronomical": "0.0358445779",
                "lunar": "13.9435408031",
                "kilometers": "5362272.504889073",
                "miles": "3331961.6294242874"
            },
            "orbiting_body": "Earth"
        },
        {
            "close_approach_date": "2035-06-12",
            "close_approach_date_full": "2035-Jun-12 20:58",
            "epoch_date_close_approach": 2065294680000,
            "relative_velocity": {
                "kilometers_per_second": "8.2884795985",
                "kilometers_per_hour": "29838.5265544308",
                "miles_per_hour": "18540.5000137795"
            },
            "miss_distance": {
                "astronomical": "0.2756799294",
                "lunar": "107.2394925366",
                "kilometers": "41241130.239990378",
                "miles": "25626050.0354000964"
            },
            "orbiting_body": "Earth"
        }
    ],
    "orbital_data": {
        "orbit_id": "6",
        "orbit_determination_date": "2017-04-06 08:40:21",
        "first_observation_date": "2014-05-21",
        "last_observation_date": "2014-06-05",
        "data_arc_in_days": 15,
        "observations_used": 17,
        "orbit_uncertainty": "7",
        "minimum_orbit_intersection": ".0344534",
        "jupiter_tisserand_invariant": "5.451",
        "epoch_osculation": "2459000.5",
        "eccentricity": ".09222635278050426",
        "semi_major_axis": "1.152760844886096",
        "inclination": ".7692237465846143",
        "ascending_node_longitude": "237.2794122816236",
        "orbital_period": "452.0716282646738",
        "perihelion_distance": "1.046445916534079",
        "perihelion_argument": "358.3144178802732",
        "aphelion_distance": "1.259075773238113",
        "perihelion_time": "2459055.998288650274",
        "mean_anomaly": "315.8048267908525",
        "mean_motion": ".7963339822538724",
        "equinox": "J2000",
        "orbit_class": {
            "orbit_class_type": "AMO",
            "orbit_class_description": "Near-Earth asteroid orbits similar to that of 1221 Amor",
            "orbit_class_range": "1.017 AU < q (perihelion) < 1.3 AU"
        }
    },
    "is_sentry_object": false
}